start=new Date('2021-10-25T00:00:00.000Z').valueOf();
sats=[{"PERIOD":"95.592","NORAD_CAT_ID":"45233","PERIAPSIS":"546.414","RCS_SIZE":"LARGE","TLE_LINE1":"1 45233U 20012BH  21297.58376997  .00001919  00000-0  14764-3 0  9992","INCLINATION":"53.0572","OBJECT_NAME":"STARLINK-1238","RA_OF_ASC_NODE":"356.2970","SEMIMAJOR_AXIS":"6925.323","ELEMENT_SET_NO":"999","ECCENTRICITY":"0.00011180","MEAN_MOTION_DDOT":"0.0000000000000","SITE":"AFETR","FILE":"3182768","REF_FRAME":"TEME","DECAY_DATE":null,"OBJECT_TYPE":"PAYLOAD","LAUNCH_DATE":"2020-02-17","APOAPSIS":"547.963","BSTAR":"0.00014764000000","TLE_LINE2":"2 45233  53.0572 356.2970 0001118  81.9950 278.1166 15.06408204 94381","OBJECT_ID":"2020-012BH","MEAN_ELEMENT_THEORY":"SGP4","EPHEMERIS_TYPE":"0","CENTER_NAME":"EARTH","TIME_SYSTEM":"UTC","MEAN_MOTION_DOT":"0.00001919","ARG_OF_PERICENTER":"81.9950","GP_ID":"188104506","CLASSIFICATION_TYPE":"U","COUNTRY_CODE":"US","MEAN_ANOMALY":"278.1166","MEAN_MOTION":"15.06408204","EPOCH":"2021-10-24T14:00:37.725408","REV_AT_EPOCH":"9438"},{"EPOCH":"2021-10-24T16:31:54.233760","MEAN_MOTION":"15.06401843","REV_AT_EPOCH":"9410","BSTAR":"0.00013419000000","APOAPSIS":"548.038","LAUNCH_DATE":"2020-02-17","ARG_OF_PERICENTER":"84.3080","MEAN_MOTION_DOT":"0.00001718","COUNTRY_CODE":"US","GP_ID":"188103254","CLASSIFICATION_TYPE":"U","MEAN_ANOMALY":"275.8045","TIME_SYSTEM":"UTC","EPHEMERIS_TYPE":"0","CENTER_NAME":"EARTH","TLE_LINE2":"2 45234  53.0549  15.8346 0001199  84.3080 275.8045 15.06401843 94103","OBJECT_ID":"2020-012BJ","MEAN_ELEMENT_THEORY":"SGP4","FILE":"3182768","REF_FRAME":"TEME","DECAY_DATE":null,"MEAN_MOTION_DDOT":"0.0000000000000","SITE":"AFETR","ECCENTRICITY":"0.00011990","SEMIMAJOR_AXIS":"6925.343","ELEMENT_SET_NO":"999","RA_OF_ASC_NODE":"15.8346","OBJECT_TYPE":"PAYLOAD","RCS_SIZE":"LARGE","PERIAPSIS":"546.378","PERIOD":"95.592","NORAD_CAT_ID":"45234","OBJECT_NAME":"STARLINK-1243","INCLINATION":"53.0549","TLE_LINE1":"1 45234U 20012BJ  21297.68882215  .00001718  00000-0  13419-3 0  9992"},{"OBJECT_TYPE":"PAYLOAD","ECCENTRICITY":"0.00011950","RA_OF_ASC_NODE":"16.2047","SEMIMAJOR_AXIS":"6925.323","ELEMENT_SET_NO":"999","FILE":"3182768","DECAY_DATE":null,"REF_FRAME":"TEME","MEAN_MOTION_DDOT":"0.0000000000000","SITE":"AFETR","TLE_LINE1":"1 45235U 20012BK  21297.60772443  .00001716  00000-0  13405-3 0  9999","OBJECT_NAME":"STARLINK-1246","INCLINATION":"53.0566","PERIAPSIS":"546.360","PERIOD":"95.592","NORAD_CAT_ID":"45235","RCS_SIZE":"LARGE","REV_AT_EPOCH":"9414","MEAN_MOTION":"15.06408468","EPOCH":"2021-10-24T14:35:07.390752","EPHEMERIS_TYPE":"0","CENTER_NAME":"EARTH","TLE_LINE2":"2 45235  53.0566  16.2047 0001195  95.7685 264.3440 15.06408468 94145","OBJECT_ID":"2020-012BK","MEAN_ELEMENT_THEORY":"SGP4","ARG_OF_PERICENTER":"95.7685","MEAN_MOTION_DOT":"0.00001716","CLASSIFICATION_TYPE":"U","GP_ID":"188103504","COUNTRY_CODE":"US","MEAN_ANOMALY":"264.3440","TIME_SYSTEM":"UTC","LAUNCH_DATE":"2020-02-17","BSTAR":"0.00013405000000","APOAPSIS":"548.015"},{"REV_AT_EPOCH":"9467","EPOCH":"2021-10-24T14:08:35.651328","MEAN_MOTION":"15.06397378","TIME_SYSTEM":"UTC","GP_ID":"188103755","COUNTRY_CODE":"US","CLASSIFICATION_TYPE":"U","MEAN_ANOMALY":"275.5161","ARG_OF_PERICENTER":"84.5950","MEAN_MOTION_DOT":"0.00001726","MEAN_ELEMENT_THEORY":"SGP4","OBJECT_ID":"2020-012BL","TLE_LINE2":"2 45236  53.0547 336.2867 0001070  84.5950 275.5161 15.06397378 94672","CENTER_NAME":"EARTH","EPHEMERIS_TYPE":"0","APOAPSIS":"547.963","BSTAR":"0.00013474000000","LAUNCH_DATE":"2020-02-17","OBJECT_TYPE":"PAYLOAD","SITE":"AFETR","MEAN_MOTION_DDOT":"0.0000000000000","DECAY_DATE":null,"REF_FRAME":"TEME","FILE":"3182768","ELEMENT_SET_NO":"999","SEMIMAJOR_AXIS":"6925.357","RA_OF_ASC_NODE":"336.2867","ECCENTRICITY":"0.00010700","INCLINATION":"53.0547","OBJECT_NAME":"STARLINK-1247","TLE_LINE1":"1 45236U 20012BL  21297.58930152  .00001726  00000-0  13474-3 0  9997","RCS_SIZE":"LARGE","NORAD_CAT_ID":"45236","PERIOD":"95.592","PERIAPSIS":"546.481"},{"OBJECT_TYPE":"PAYLOAD","SEMIMAJOR_AXIS":"6925.367","RA_OF_ASC_NODE":"336.4903","ELEMENT_SET_NO":"999","ECCENTRICITY":"0.00010390","MEAN_MOTION_DDOT":"0.0000000000000","SITE":"AFETR","FILE":"3182197","DECAY_DATE":null,"REF_FRAME":"TEME","TLE_LINE1":"1 45237U 20012BM  21297.54506399 -.00000363  00000-0 -54866-5 0  9996","INCLINATION":"53.0561","OBJECT_NAME":"STARLINK-1270","PERIOD":"95.593","NORAD_CAT_ID":"45237","PERIAPSIS":"546.513","RCS_SIZE":"LARGE","REV_AT_EPOCH":"9467","MEAN_MOTION":"15.06393834","EPOCH":"2021-10-24T13:04:53.528736","TLE_LINE2":"2 45237  53.0561 336.4903 0001039  89.4392 270.6716 15.06393834 94676","MEAN_ELEMENT_THEORY":"SGP4","OBJECT_ID":"2020-012BM","EPHEMERIS_TYPE":"0","CENTER_NAME":"EARTH","TIME_SYSTEM":"UTC","ARG_OF_PERICENTER":"89.4392","MEAN_MOTION_DOT":"-0.00000363","COUNTRY_CODE":"US","GP_ID":"188067426","CLASSIFICATION_TYPE":"U","MEAN_ANOMALY":"270.6716","LAUNCH_DATE":"2020-02-17","APOAPSIS":"547.952","BSTAR":"-0.00000548660000"},{"TIME_SYSTEM":"UTC","MEAN_MOTION_DOT":"0.00000919","ARG_OF_PERICENTER":"94.0437","COUNTRY_CODE":"US","GP_ID":"188103769","MEAN_ANOMALY":"266.0731","CLASSIFICATION_TYPE":"U","TLE_LINE2":"2 45360  53.0543 105.1758 0001562  94.0437 266.0731 15.06392340 89452","MEAN_ELEMENT_THEORY":"SGP4","OBJECT_ID":"2020-019A","EPHEMERIS_TYPE":"0","CENTER_NAME":"EARTH","APOAPSIS":"548.319","BSTAR":"0.00008058300000","LAUNCH_DATE":"2020-03-18","REV_AT_EPOCH":"8945","EPOCH":"2021-10-24T20:02:53.258496","MEAN_MOTION":"15.06392340","INCLINATION":"53.0543","OBJECT_NAME":"STARLINK-1279","TLE_LINE1":"1 45360U 20019A   21297.83533864  .00000919  00000-0  80583-4 0  9998","RCS_SIZE":"LARGE","PERIOD":"95.593","NORAD_CAT_ID":"45360","PERIAPSIS":"546.155","OBJECT_TYPE":"PAYLOAD","MEAN_MOTION_DDOT":"0.0000000000000","SITE":"AFETR","FILE":"3182768","DECAY_DATE":null,"REF_FRAME":"TEME","SEMIMAJOR_AXIS":"6925.372","RA_OF_ASC_NODE":"105.1758","ELEMENT_SET_NO":"999","ECCENTRICITY":"0.00015620"},{"REV_AT_EPOCH":"8932","EPOCH":"2021-10-24T19:45:38.362752","MEAN_MOTION":"15.06391615","TIME_SYSTEM":"UTC","MEAN_MOTION_DOT":"0.00000957","ARG_OF_PERICENTER":"90.9970","GP_ID":"188104020","COUNTRY_CODE":"US","CLASSIFICATION_TYPE":"U","MEAN_ANOMALY":"269.1169","TLE_LINE2":"2 45361  53.0539 115.2301 0001308  90.9970 269.1169 15.06391615 89328","OBJECT_ID":"2020-019B","MEAN_ELEMENT_THEORY":"SGP4","EPHEMERIS_TYPE":"0","CENTER_NAME":"EARTH","APOAPSIS":"548.145","BSTAR":"0.00008316400000","LAUNCH_DATE":"2020-03-18","OBJECT_TYPE":"PAYLOAD","MEAN_MOTION_DDOT":"0.0000000000000","SITE":"AFETR","FILE":"3182768","REF_FRAME":"TEME","DECAY_DATE":null,"SEMIMAJOR_AXIS":"6925.374","ELEMENT_SET_NO":"999","RA_OF_ASC_NODE":"115.2301","ECCENTRICITY":"0.00013080","INCLINATION":"53.0539","OBJECT_NAME":"STARLINK-1301","TLE_LINE1":"1 45361U 20019B   21297.82336068  .00000957  00000-0  83164-4 0  9995","RCS_SIZE":"LARGE","PERIOD":"95.593","NORAD_CAT_ID":"45361","PERIAPSIS":"546.333"},{"RCS_SIZE":"LARGE","NORAD_CAT_ID":"45362","PERIOD":"95.593","PERIAPSIS":"546.023","INCLINATION":"53.0536","OBJECT_NAME":"STARLINK-1306","TLE_LINE1":"1 45362U 20019C   21297.86944836  .00000850  00000-0  75994-4 0  9992","SITE":"AFETR","MEAN_MOTION_DDOT":"0.0000000000000","REF_FRAME":"TEME","DECAY_DATE":null,"FILE":"3182768","RA_OF_ASC_NODE":"135.0244","SEMIMAJOR_AXIS":"6925.392","ELEMENT_SET_NO":"999","ECCENTRICITY":"0.00017820","OBJECT_TYPE":"PAYLOAD","APOAPSIS":"548.491","BSTAR":"0.00007599400000","LAUNCH_DATE":"2020-03-18","TIME_SYSTEM":"UTC","CLASSIFICATION_TYPE":"U","GP_ID":"188102768","COUNTRY_CODE":"US","MEAN_ANOMALY":"275.4819","MEAN_MOTION_DOT":"0.00000850","ARG_OF_PERICENTER":"84.6373","MEAN_ELEMENT_THEORY":"SGP4","OBJECT_ID":"2020-019C","TLE_LINE2":"2 45362  53.0536 135.0244 0001782  84.6373 275.4819 15.06385938 89047","CENTER_NAME":"EARTH","EPHEMERIS_TYPE":"0","EPOCH":"2021-10-24T20:52:00.338304","MEAN_MOTION":"15.06385938","REV_AT_EPOCH":"8904"},{"MEAN_MOTION":"15.06382133","EPOCH":"2021-10-24T18:22:03.634176","REV_AT_EPOCH":"8944","LAUNCH_DATE":"2020-03-18","APOAPSIS":"548.221","BSTAR":"0.00005338600000","MEAN_ELEMENT_THEORY":"SGP4","OBJECT_ID":"2020-019E","TLE_LINE2":"2 45364  53.0544 105.4944 0001376  90.9680 269.1467 15.06382133 89443","CENTER_NAME":"EARTH","EPHEMERIS_TYPE":"0","TIME_SYSTEM":"UTC","COUNTRY_CODE":"US","GP_ID":"188103018","MEAN_ANOMALY":"269.1467","CLASSIFICATION_TYPE":"U","MEAN_MOTION_DOT":"0.00000513","ARG_OF_PERICENTER":"90.9680","SEMIMAJOR_AXIS":"6925.403","RA_OF_ASC_NODE":"105.4944","ELEMENT_SET_NO":"999","ECCENTRICITY":"0.00013760","SITE":"AFETR","MEAN_MOTION_DDOT":"0.0000000000000","REF_FRAME":"TEME","DECAY_DATE":null,"FILE":"3182768","OBJECT_TYPE":"PAYLOAD","NORAD_CAT_ID":"45364","PERIOD":"95.593","PERIAPSIS":"546.315","RCS_SIZE":"LARGE","TLE_LINE1":"1 45364U 20019E   21297.76531984  .00000513  00000-0  53386-4 0  9996","INCLINATION":"53.0544","OBJECT_NAME":"STARLINK-1313"},{"RCS_SIZE":"LARGE","PERIOD":"95.643","NORAD_CAT_ID":"45365","PERIAPSIS":"548.454","INCLINATION":"53.0013","OBJECT_NAME":"STARLINK-1317","TLE_LINE1":"1 45365U 20019F   21297.77885744  .00001216  00000-0  10260-3 0  9998","MEAN_MOTION_DDOT":"0.0000000000000","SITE":"AFETR","FILE":"3182768","REF_FRAME":"TEME","DECAY_DATE":null,"SEMIMAJOR_AXIS":"6927.813","ELEMENT_SET_NO":"999","RA_OF_ASC_NODE":"115.4292","ECCENTRICITY":"0.00017660","OBJECT_TYPE":"PAYLOAD","APOAPSIS":"550.901","BSTAR":"0.00010260000000","LAUNCH_DATE":"2020-03-18","TIME_SYSTEM":"UTC","MEAN_MOTION_DOT":"0.00001216","ARG_OF_PERICENTER":"91.8687","CLASSIFICATION_TYPE":"U","GP_ID":"188104270","COUNTRY_CODE":"US","MEAN_ANOMALY":"268.2503","TLE_LINE2":"2 45365  53.0013 115.4292 0001766  91.8687 268.2503 15.05596388 89283","MEAN_ELEMENT_THEORY":"SGP4","OBJECT_ID":"2020-019F","EPHEMERIS_TYPE":"0","CENTER_NAME":"EARTH","EPOCH":"2021-10-24T18:41:33.282816","MEAN_MOTION":"15.05596388","REV_AT_EPOCH":"8928"}];
